{
    "links": {
        "self": "http://www.neowsapp.com/rest/v1/neo/3741568?api_key=iIulBulltgU6a56xZRHN4H3l9WmuAYTsLGpBGhQ2"
    },
    "id": "3741568",
    "neo_reference_id": "3741568",
    "name": "(2016 CU29)",
    "designation": "2016 CU29",
    "nasa_jpl_url": "http://ssd.jpl.nasa.gov/sbdb.cgi?sstr=3741568",
    "absolute_magnitude_h": 26.7,
    "estimated_diameter": {
        "kilometers": {
            "estimated_diameter_min": 0.0121494041,
            "estimated_diameter_max": 0.0271668934
        },
        "meters": {
            "estimated_diameter_min": 12.14940408,
            "estimated_diameter_max": 27.1668934089
        },
        "miles": {
            "estimated_diameter_min": 0.0075492874,
            "estimated_diameter_max": 0.0168807197
        },
        "feet": {
            "estimated_diameter_min": 39.8602508817,
            "estimated_diameter_max": 89.1302305717
        }
    },
    "is_potentially_hazardous_asteroid": false,
    "close_approach_data": [
        {
            "close_approach_date": "1902-01-02",
            "close_approach_date_full": "1902-Jan-02 22:23",
            "epoch_date_close_approach": -2145749820000,
            "relative_velocity": {
                "kilometers_per_second": "22.608006644",
                "kilometers_per_hour": "81388.8239185663",
                "miles_per_hour": "50571.8500620669"
            },
            "miss_distance": {
                "astronomical": "0.4952290668",
                "lunar": "192.6441069852",
                "kilometers": "74085213.555367716",
                "miles": "46034417.0590218408"
            },
            "orbiting_body": "Earth"
        },
        {
            "close_approach_date": "2016-02-11",
            "close_approach_date_full": "2016-Feb-11 00:00",
            "epoch_date_close_approach": 1455148800000,
            "relative_velocity": {
                "kilometers_per_second": "9.0242704403",
                "kilometers_per_hour": "32487.3735850284",
                "miles_per_hour": "20186.390547875"
            },
            "miss_distance": {
                "astronomical": "0.0206353284",
                "lunar": "8.0271427476",
                "kilometers": "3087001.175390508",
                "miles": "1918173.5834966904"
            },
            "orbiting_body": "Earth"
        }
    ],
    "orbital_data": {
        "orbit_id": "14",
        "orbit_determination_date": "2018-02-10 07:07:28",
        "first_observation_date": "2016-02-05",
        "last_observation_date": "2016-02-11",
        "data_arc_in_days": 6,
        "observations_used": 86,
        "orbit_uncertainty": "7",
        "minimum_orbit_intersection": ".0127882",
        "jupiter_tisserand_invariant": "3.652",
        "epoch_osculation": "2459000.5",
        "eccentricity": ".5119035201556684",
        "semi_major_axis": "2.005864956375499",
        "inclination": "7.360173817804835",
        "ascending_node_longitude": "320.9107052377821",
        "orbital_period": "1037.65017453732",
        "perihelion_distance": ".9790556242499846",
        "perihelion_argument": "202.6542977947866",
        "aphelion_distance": "3.032674288501013",
        "perihelion_time": "2458485.186143740072",
        "mean_anomaly": "178.7818214710876",
        "mean_motion": ".3469377337699779",
        "equinox": "J2000",
        "orbit_class": {
            "orbit_class_type": "APO",
            "orbit_class_description": "Near-Earth asteroid orbits which cross the Earth’s orbit similar to that of 1862 Apollo",
            "orbit_class_range": "a (semi-major axis) > 1.0 AU; q (perihelion) < 1.017 AU"
        }
    },
    "is_sentry_object": false
}